NORAD_CAT_ID,OBJECT_NAME,OBJECT_TYPE,EPOCH,MEAN_MOTION,ECCENTRICITY,INCLINATION,RA_OF_ASC_NODE,ARG_OF_PERICENTER,MEAN_ANOMALY,BSTAR,MEAN_MOTION_DOT,MEAN_MOTION_DDOT,TLE_LINE0,TLE_LINE1,TLE_LINE2,SEMIMAJOR_AXIS,PERIOD,APOGEE,PERIGEE,DECAYED
52580.0,STARLINK-3919,PAYLOAD,2022-08-21 22:00:00,15.0887389,0.0001919,53.2173,191.0694,55.6669,189.1721,-0.0038042,-0.00060382,0.0,0 STARLINK-3919,1 52580U 22051AW  22233.91667824 -.00060382  00000-0 -38042-2 0  9995,2 52580  53.2173 191.0694 0001919  55.6669 189.1721 15.08873890  1302,6917.776999999999,95.435,540.969,538.314,0.0
52580.0,STARLINK-3919,PAYLOAD,2022-08-22 06:00:00,15.08811053,0.0002075,53.2176,189.578,47.702,208.7515,0.0018216999999999,0.00028801,0.0,0 STARLINK-3919,1 52580U 22051AW  22234.25001157  .00028801  00000-0  18217-2 0  9994,2 52580  53.2176 189.5780 0002075  47.7020 208.7515 15.08811053 15880,6917.969,95.439,541.269,538.398,0.0
52580.0,STARLINK-3919,PAYLOAD,2022-08-22 12:00:00,15.0884386,0.0002012,53.2174,188.4549,47.78,127.3451,-0.0016832,-0.0002698,0.0,0 STARLINK-3919,1 52580U 22051AW  22234.50001157 -.00026980  00000-0 -16832-2 0  9991,2 52580  53.2174 188.4549 0002012  47.7800 127.3451 15.08843860  1304,6917.869000000002,95.437,541.125,538.342,0.0
52580.0,STARLINK-3919,PAYLOAD,2022-08-22 22:00:00,15.08841679,0.0001976999999999,53.2178,186.5837,54.0882,225.5157,7.6363e-05,9.27e-06,0.0,0 STARLINK-3919,1 52580U 22051AW  22234.91667824  .00000927  00000-0  76363-4 0  9993,2 52580  53.2178 186.5837 0001977  54.0882 225.5157 15.08841679  1307,6917.875,95.437,541.1080000000002,538.373,0.0
52580.0,STARLINK-3919,PAYLOAD,2022-08-23 06:00:00,15.08820263,0.0002189999999999,53.218,185.0891,48.7305,242.4733,0.0021230999999999,0.00033645,0.0,0 STARLINK-3919,1 52580U 22051AW  22235.25001157  .00033645  00000-0  21231-2 0  9997,2 52580  53.2180 185.0891 0002190  48.7305 242.4733 15.08820263 16032,6917.941,95.439,541.321,538.2909999999998,0.0
52580.0,STARLINK-3919,PAYLOAD,2022-08-23 14:00:01,15.08853831,0.0002048,53.2182,183.5914,50.4925,252.297,-0.0017445999999999,-0.00027957,0.0,0 STARLINK-3919,1 52580U 22051AW  22235.58334491 -.00027957  00000-0 -17446-2 0  9997,2 52580  53.2182 183.5914 0002048  50.4925 252.2970 15.08853831  1306,6917.8380000000025,95.437,541.12,538.286,0.0
52580.0,STARLINK-3919,PAYLOAD,2022-08-23 22:00:01,15.08848574,0.0002023,53.2185,182.0947,53.3974,261.0518,-0.0020804,-0.00033254,0.0,0 STARLINK-3919,1 52580U 22051AW  22235.91668981 -.00033254  00000-0 -20804-2 0  9997,2 52580  53.2185 182.0947 0002023  53.3974 261.0518 15.08848574 16139,6917.854,95.437,541.119,538.32,0.0
52580.0,STARLINK-3919,PAYLOAD,2022-08-24 14:00:01,15.08830733,0.0002073,53.219,179.1025,50.8309,286.7194,-0.00063363,-0.00010356,0.0,0 STARLINK-3919,1 52580U 22051AW  22236.58334491 -.00010356  00000-0 -63363-3 0  9993,2 52580  53.2190 179.1025 0002073  50.8309 286.7194 15.08830733  1303,6917.909000000002,95.438,541.2080000000002,538.34,0.0
52580.0,STARLINK-3919,PAYLOAD,2022-08-24 16:00:00,15.08808514,0.0002020999999999,53.219,178.72799999999995,52.1559,18.2965,0.0022158,0.00035122,0.0,0 STARLINK-3919,1 52580U 22051AW  22236.66667824  .00035122  00000-0  22158-2 0  9993,2 52580  53.2190 178.7280 0002021  52.1559  18.2965 15.08808514 16241,6917.977,95.44,541.24,538.444,0.0
52580.0,STARLINK-3919,PAYLOAD,2022-08-24 22:00:00,15.08843695,0.0002084,53.2189,177.6045,53.834,295.2908,-0.00079886,-0.00012981,0.0,0 STARLINK-3919,1 52580U 22051AW  22236.91667824 -.00012981  00000-0 -79886-3 0  9992,2 52580  53.2189 177.6045 0002084  53.8340 295.2908 15.08843695  1305,6917.869000000002,95.437,541.1759999999998,538.2919999999998,0.0
52580.0,STARLINK-3919,PAYLOAD,2022-08-25 14:00:01,15.0883883,0.0002118,53.2195,174.6137,53.3055,319.0067,-2.2969e-06,-3.25e-06,0.0,0 STARLINK-3919,1 52580U 22051AW  22237.58334491 -.00000325  00000-0 -22969-5 0  9998,2 52580  53.2195 174.6137 0002118  53.3055 319.0067 15.08838830  1303,6917.884,95.438,541.214,538.284,0.0
52580.0,STARLINK-3919,PAYLOAD,2022-08-25 22:00:00,15.08859795,0.0002134999999999,53.2199,173.1177,55.5489,328.3501,-0.0011167,-0.00018027,0.0,0 STARLINK-3919,1 52580U 22051AW  22237.91667824 -.00018027  00000-0 -11167-2 0  9997,2 52580  53.2199 173.1177 0002135  55.5489 328.3501 15.08859795  1308,6917.82,95.436,541.1619999999998,538.2080000000002,0.0
52580.0,STARLINK-3919,PAYLOAD,2022-08-26 14:00:01,15.088452900000002,0.0002065,53.2198,170.125,54.7234,352.4582,-0.0018245,-0.00029213,0.0,0 STARLINK-3919,1 52580U 22051AW  22238.58335648 -.00029213  00000-0 -18245-2 0  9990,2 52580  53.2198 170.1250 0002065  54.7234 352.4582 15.08845290 16530,6917.864000000001,95.437,541.158,538.3009999999998,0.0
52580.0,STARLINK-3919,PAYLOAD,2022-08-26 22:00:00,15.08846503,0.0002068,53.22,168.6293,55.7409,2.9611,-0.0014939999999999,-0.00023991,0.0,0 STARLINK-3919,1 52580U 22051AW  22238.91667824 -.00023991  00000-0 -14940-2 0  9996,2 52580  53.2200 168.6293 0002068  55.7409   2.9611 15.08846503  1308,6917.861,95.437,541.156,538.295,0.0
52580.0,STARLINK-3919,PAYLOAD,2022-08-27 14:00:01,15.08827535,0.0002039,53.2197,165.6365,56.7967,25.0903,0.0012905999999999,0.00020305,0.0,0 STARLINK-3919,1 52580U 22051AW  22239.58334491  .00020305  00000-0  12906-2 0  9995,2 52580  53.2197 165.6365 0002039  56.7967  25.0903 15.08827535  1302,6917.918000000002,95.438,541.194,538.373,0.0
52580.0,STARLINK-3919,PAYLOAD,2022-08-27 22:00:00,15.08861148,0.0002109,53.2197,164.1409,58.1025,35.3664,-0.0016277,-0.00026115,0.0,0 STARLINK-3919,1 52580U 22051AW  22239.91667824 -.00026115  00000-0 -16277-2 0  9993,2 52580  53.2197 164.1409 0002109  58.1025  35.3664 15.08861148  1300,6917.816,95.436,541.14,538.222,0.0
52580.0,STARLINK-3919,PAYLOAD,2022-08-28 06:00:00,15.08834938,0.0002191999999999,53.2192,162.6459,52.9823,52.1019,0.0021072,0.00033403,0.0,0 STARLINK-3919,1 52580U 22051AW  22240.25001157  .00033403  00000-0  21072-2 0  9998,2 52580  53.2192 162.6459 0002192  52.9823  52.1019 15.08834938 16789,6917.896,95.438,541.2769999999998,538.244,0.0
52580.0,STARLINK-3919,PAYLOAD,2022-08-28 14:00:01,15.08829097,0.0001995,53.2192,161.1479,57.7766,58.9214,0.0005822,8.987e-05,0.0,0 STARLINK-3919,1 52580U 22051AW  22240.58334491  .00008987  00000-0  58220-3 0  9999,2 52580  53.2192 161.1479 0001995  57.7766  58.9214 15.08829097  1307,6917.9140000000025,95.438,541.159,538.399,0.0
52580.0,STARLINK-3919,PAYLOAD,2022-08-28 22:00:00,15.08851825,0.0002072,53.2192,159.6524,58.1557,70.1202,-0.0015731,-0.00025246,0.0,0 STARLINK-3919,1 52580U 22051AW  22240.91667824 -.00025246  00000-0 -15731-2 0  9993,2 52580  53.2192 159.6524 0002072  58.1557  70.1202 15.08851825  1307,6917.844,95.437,541.143,538.276,0.0
52580.0,STARLINK-3919,PAYLOAD,2022-08-29 14:00:01,15.08799095,0.0001949,53.2188,156.6592,56.5151,94.9509,0.0021427,0.0003393999999999,0.0,0 STARLINK-3919,1 52580U 22051AW  22241.58334491  .00033940  00000-0  21427-2 0  9995,2 52580  53.2188 156.6592 0001949  56.5151  94.9509 15.08799095  1302,6918.005,95.44,541.219,538.5219999999998,0.0
52580.0,STARLINK-3919,PAYLOAD,2022-08-29 22:00:00,15.08838686,0.0002077,53.2189,155.1638,57.413,105.6102,-0.0014519,-0.00023321,0.0,0 STARLINK-3919,1 52580U 22051AW  22241.91667824 -.00023321  00000-0 -14519-2 0  9999,2 52580  53.2189 155.1638 0002077  57.4130 105.6102 15.08838686 17045,6917.884,95.438,541.186,538.313,0.0
52580.0,STARLINK-3919,PAYLOAD,2022-08-30 14:00:01,15.08813165,0.0002053,53.2187,152.1704,57.6231,128.5651,0.0024134,0.00038302,0.0,0 STARLINK-3919,1 52580U 22051AW  22242.58334491  .00038302  00000-0  24134-2 0  9991,2 52580  53.2187 152.1704 0002053  57.6231 128.5651 15.08813165 17141,6917.962,95.439,541.248,538.4069999999998,0.0
52580.0,STARLINK-3919,PAYLOAD,2022-08-30 22:00:00,15.08854452,0.0002189,53.2188,150.675,57.8143,139.9539,-0.0013407,-0.00021571,0.0,0 STARLINK-3919,1 52580U 22051AW  22242.91667824 -.00021571  00000-0 -13407-2 0  9990,2 52580  53.2188 150.6750 0002189  57.8143 139.9539 15.08854452  1306,6917.8359999999975,95.437,541.216,538.187,0.0
52580.0,STARLINK-3919,PAYLOAD,2022-08-31 14:00:01,15.08838367,0.0002092,53.2188,147.6813,58.3443,162.6401,6.486e-05,7.44e-06,0.0,0 STARLINK-3919,1 52580U 22051AW  22243.58334491  .00000744  00000-0  64860-4 0  9993,2 52580  53.2188 147.6813 0002092  58.3443 162.6401 15.08838367  1302,6917.885,95.438,541.198,538.303,0.0
52580.0,STARLINK-3919,PAYLOAD,2022-08-31 22:00:00,15.08845769,0.0002186,53.2189,146.1861,57.0307,175.5455,-0.0012010999999999,-0.00019356,0.0,0 STARLINK-3919,1 52580U 22051AW  22243.91667824 -.00019356  00000-0 -12011-2 0  9999,2 52580  53.2189 146.1861 0002186  57.0307 175.5455 15.08845769 17346,6917.863,95.437,541.24,538.216,0.0
52580.0,STARLINK-3919,PAYLOAD,2022-09-01 14:00:01,15.08835588,0.0002081,53.2189,143.1922,59.0298,196.804,0.00063392,9.814e-05,0.0,0 STARLINK-3919,1 52580U 22051AW  22244.58335648  .00009814  00000-0  63392-3 0  9994,2 52580  53.2189 143.1922 0002081  59.0298 196.8040 15.08835588  1309,6917.894,95.438,541.198,538.319,0.0
52580.0,STARLINK-3919,PAYLOAD,2022-09-01 22:00:00,15.08842457,0.0002134999999999,53.219,141.6971,56.4916,210.8759,-0.0015889,-0.00025489,0.0,0 STARLINK-3919,1 52580U 22051AW  22244.91667824 -.00025489  00000-0 -15889-2 0  9990,2 52580  53.2190 141.6971 0002135  56.4916 210.8759 15.08842457  1303,6917.873000000001,95.437,541.215,538.261,0.0
52580.0,STARLINK-3919,PAYLOAD,2022-09-02 06:00:00,15.08831751,0.0002186,53.2187,140.2012,53.5344,225.4141,0.00037756,5.725e-05,0.0,0 STARLINK-3919,1 52580U 22051AW  22245.25001157  .00005725  00000-0  37756-3 0  9996,2 52580  53.2187 140.2012 0002186  53.5344 225.4141 15.08831751 17544,6917.906,95.438,541.283,538.258,0.0
52580.0,STARLINK-3919,PAYLOAD,2022-09-02 14:00:01,15.0881242,0.0002051,53.219,138.7032,60.0821,230.4624,0.0031181,0.00049649,0.0,0 STARLINK-3919,1 52580U 22051AW  22245.58334491  .00049649  00000-0  31181-2 0  9990,2 52580  53.2190 138.7032 0002051  60.0821 230.4624 15.08812420  1307,6917.965,95.439,541.249,538.411,0.0
